     2.100          NAVIGATION                              RINEX VERSION / TYPE
fic2rin                                 02/07/2014 00:19:18 PGM / RUN BY / DATE
                                                            END OF HEADER
 6 14  2  6  8  0  0.0  .264949165285D-03  .146656020661D-10  .000000000000D+00
     .510000000000D+02 -.130312500000D+02  .510235539073D-08 -.225408060510D+01
    -.685453414917D-06  .853774766438D-02  .752322375774D-05  .515368133163D+04
     .374400000000D+06 -.186264514923D-06 -.810813060293D+00 -.141561031342D-06
     .943666103367D+00  .227875000000D+03 -.179048536216D+00 -.827748764773D-08
     .319299014371D-09  .100000000000D+01  .177800000000D+04  .000000000000D+00
     .240000000000D+01  .000000000000D+00 -.512227416039D-08  .510000000000D+02
     .367206000000D+06  .400000000000D+01
 8 14  2  6  8  0  0.0  .117700546980D-04  .227373675443D-12  .000000000000D+00
     .900000000000D+02 -.216875000000D+02  .377551440819D-08  .934629278032D-01
    -.101886689663D-05  .134573557880D-01  .606663525105D-05  .515364440536D+04
     .374400000000D+06  .137835741043D-06 -.271794522832D+01  .968575477600D-07
     .997544107876D+00  .282125000000D+03 -.279182608624D+01 -.800211903466D-08
    -.821462788651D-10  .100000000000D+01  .177800000000D+04  .000000000000D+00
     .340000000000D+01  .000000000000D+00 -.419095158577D-08  .900000000000D+02
     .367206000000D+06  .400000000000D+01
 9 14  2  6  8  0  0.0  .303462147713D-03  .272848410532D-11  .000000000000D+00
     .340000000000D+02 -.225625000000D+02  .394480717420D-08  .180841950165D+01
    -.136718153954D-05  .168888327898D-01  .525452196598D-05  .515369497871D+04
     .374400000000D+06  .298023223877D-06 -.283609423601D+01 -.162050127983D-06
     .983016863215D+00  .285937500000D+03  .176616771234D+01 -.776960934970D-08
    -.134648465792D-09  .100000000000D+01  .177800000000D+04  .000000000000D+00
     .340000000000D+01  .000000000000D+00 -.605359673500D-08  .340000000000D+02
     .367206000000D+06  .400000000000D+01
10 14  2  6  8  0  0.0 -.113131478429D-03 -.159161572810D-11  .000000000000D+00
     .200000000000D+02  .406562500000D+02  .476805575152D-08 -.171651054541D+01
     .205263495445D-05  .134361974197D-01  .932812690735D-05  .515370172310D+04
     .374400000000D+06  .258907675743D-06  .136556151454D+01 -.132247805595D-06
     .942155526342D+00  .189031250000D+03  .855461086005D+00 -.794997400547D-08
    -.850035407387D-10  .100000000000D+01  .177800000000D+04  .000000000000D+00
     .240000000000D+01  .000000000000D+00 -.279396772385D-08  .200000000000D+02
     .367206000000D+06  .400000000000D+01
11 14  2  6  8  0  0.0 -.461926218122D-03 -.329691829393D-11  .000000000000D+00
     .630000000000D+02 -.313125000000D+02  .662741891574D-08  .895870773254D+00
    -.157579779625D-05  .147764199646D-01  .623986124992D-05  .515369340134D+04
     .374400000000D+06 -.223517417908D-06 -.768789490597D-02  .726431608200D-07
     .890388495066D+00  .226218750000D+03  .126220988079D+01 -.932145970478D-08
    -.114290474943D-09  .100000000000D+01  .177800000000D+04  .000000000000D+00
     .240000000000D+01  .000000000000D+00 -.116415321827D-07  .630000000000D+02
     .367206000000D+06  .400000000000D+01
13 14  2  6  8  0  0.0  .324305146933D-04 -.386535248253D-11  .000000000000D+00
     .780000000000D+02  .566562500000D+02  .410445668138D-08  .304823016243D+01
     .299885869026D-05  .521225703415D-02  .587664544582D-05  .515364017105D+04
     .374400000000D+06  .931322574615D-08  .250351839999D+01  .763684511185D-07
     .978676908999D+00  .275343750000D+03  .219170956385D+01 -.790497213096D-08
     .135719938995D-10  .100000000000D+01  .177800000000D+04  .000000000000D+00
     .240000000000D+01  .000000000000D+00 -.111758708954D-07  .780000000000D+02
     .367206000000D+06  .400000000000D+01
14 14  2  6  8  0  0.0  .200565438718D-03 -.306954461848D-11  .000000000000D+00
     .710000000000D+02  .724062500000D+02  .419660337680D-08 -.293549942295D+01
     .378675758839D-05  .726023898460D-02  .625476241112D-05  .515361841965D+04
     .374400000000D+06  .316649675369D-07  .247245029171D+01 -.838190317154D-07
     .971248620609D+00  .263000000000D+03 -.199056539970D+01 -.790997233924D-08
     .139648674071D-09  .100000000000D+01  .177800000000D+04  .000000000000D+00
     .240000000000D+01  .000000000000D+00 -.884756445885D-08  .710000000000D+02
     .367206000000D+06  .400000000000D+01
15 14  2  6  8  0  0.0 -.161622185260D-03 -.204636307899D-11  .000000000000D+00
     .150000000000D+02  .778750000000D+02  .506092509356D-08  .278842356115D+01
     .404566526413D-05  .617122114636D-02  .591576099396D-05  .515364469719D+04
     .374400000000D+06 -.316649675369D-07  .236411792515D+01 -.521540641785D-07
     .937756723320D+00  .254531250000D+03  .246444620608D+00 -.842213653008D-08
     .957182727646D-10  .100000000000D+01  .177800000000D+04  .000000000000D+00
     .240000000000D+01  .000000000000D+00 -.102445483208D-07  .150000000000D+02
     .367206000000D+06  .400000000000D+01
16 14  2  6  8  0  0.0 -.232617836446D-03  .147792889038D-11  .000000000000D+00
     .900000000000D+01 -.387812500000D+02  .393087802256D-08 -.186663760374D+01
    -.228732824326D-05  .741047866177D-02  .844709575176D-05  .515379809570D+04
     .374400000000D+06  .167638063431D-07 -.173484766908D+01 -.124797224998D-06
     .987041317204D+00  .231468750000D+03  .134293266905D+00 -.774639409698D-08
     .245367363393D-09  .100000000000D+01  .177800000000D+04  .000000000000D+00
     .240000000000D+01  .000000000000D+00 -.977888703346D-08  .900000000000D+01
     .367206000000D+06  .400000000000D+01
17 14  2  6  8  0  0.0 -.658379867673D-04 -.341060513165D-11  .000000000000D+00
     .310000000000D+02 -.139375000000D+02  .459447709270D-08 -.282773960156D+01
    -.666826963425D-06  .910064380150D-02  .667199492455D-05  .515373903275D+04
     .374400000000D+06  .130385160446D-06 -.701000902358D+00 -.119209289551D-06
     .967726007501D+00  .252406250000D+03 -.213624801197D+01 -.798640409436D-08
     .258225041824D-09  .100000000000D+01  .177800000000D+04  .000000000000D+00
     .240000000000D+01  .000000000000D+00 -.102445483208D-07  .310000000000D+02
     .367206000000D+06  .400000000000D+01
18 14  2  6  8  0  0.0  .300337094814D-03  .216004991671D-11  .000000000000D+00
     .360000000000D+02  .340625000000D+02  .525986195151D-08 -.120548132189D+01
     .179745256901D-05  .147101639304D-01  .100992619991D-04  .515366819382D+04
     .374400000000D+06  .234693288803D-06  .134472914562D+01  .322237610817D-06
     .925932269550D+00  .166531250000D+03 -.206250161963D+01 -.838749222986D-08
    -.287511976028D-09  .100000000000D+01  .177800000000D+04  .000000000000D+00
     .240000000000D+01  .000000000000D+00 -.107102096081D-07  .360000000000D+02
     .367206000000D+06  .400000000000D+01
19 14  2  6  8  0  0.0 -.437072012573D-03 -.250111042988D-11  .000000000000D+00
     .600000000000D+02 -.132187500000D+02  .464055044041D-08  .264373257620D+01
    -.698491930962D-06  .990988861304D-02  .695884227753D-05  .515357260132D+04
     .374400000000D+06 -.189989805222D-06 -.649830463704D+00 -.137835741043D-06
     .964907265724D+00  .248625000000D+03  .402464314426D+00 -.795676000242D-08
     .272868508926D-09  .100000000000D+01  .177800000000D+04  .000000000000D+00
     .240000000000D+01  .000000000000D+00 -.149011611938D-07  .600000000000D+02
     .367206000000D+06  .400000000000D+01
20 14  2  6  8  0  0.0  .159290619195D-03  .329691829393D-11  .000000000000D+00
     .110000000000D+02  .220312500000D+02  .528307720423D-08 -.707260588380D+00
     .114552676678D-05  .596509710886D-02  .962987542152D-05  .515358363533D+04
     .374400000000D+06 -.447034835815D-07  .129152127901D+01  .106170773506D-06
     .926889914743D+00  .175625000000D+03  .131018571744D+01 -.844892336014D-08
    -.155720772109D-09  .100000000000D+01  .177800000000D+04  .000000000000D+00
     .240000000000D+01  .000000000000D+00 -.791624188423D-08  .110000000000D+02
     .367206000000D+06  .400000000000D+01
21 14  2  6  8  0  0.0 -.342417508364D-03 -.216004991671D-11  .000000000000D+00
     .850000000000D+02 -.256875000000D+02  .557630370400D-08 -.150835093127D+00
    -.120513141155D-05  .210722049233D-01  .716373324394D-05  .515355777931D+04
     .374400000000D+06 -.109896063805D-06  .298951958652D+00  .255182385445D-06
     .932442031176D+00  .226843750000D+03 -.206535757073D+01 -.891251409913D-08
    -.216437586923D-09  .100000000000D+01  .177800000000D+04  .000000000000D+00
     .240000000000D+01  .000000000000D+00 -.111758708954D-07  .850000000000D+02
     .367206000000D+06  .400000000000D+01
22 14  2  6  8  0  0.0  .211545731872D-03  .250111042988D-11  .000000000000D+00
     .240000000000D+02  .280625000000D+02  .518021577678D-08 -.174388286034D+01
     .135414302349D-05  .674261373933D-02  .101942569017D-04  .515373533440D+04
     .374400000000D+06  .186264514923D-06  .134682632353D+01 -.763684511185D-07
     .923698731577D+00  .163406250000D+03 -.206567373366D+01 -.820498462769D-08
    -.249653256203D-09  .100000000000D+01  .177800000000D+04  .000000000000D+00
     .340000000000D+01  .000000000000D+00 -.172294676304D-07  .240000000000D+02
     .367206000000D+06  .400000000000D+01
23 14  2  6  8  0  0.0  .633206218481D-05 -.329691829393D-11  .000000000000D+00
     .690000000000D+02  .639062500000D+02  .471841082646D-08  .231347054554D+01
     .329315662384D-05  .890557782259D-02  .615417957306D-05  .515359754562D+04
     .374400000000D+06 -.221654772758D-06  .240911871746D+01  .931322574615D-08
     .952819915334D+00  .257593750000D+03 -.280745065112D+01 -.821927093705D-08
     .314298806093D-10  .100000000000D+01  .177800000000D+04  .000000000000D+00
     .240000000000D+01  .000000000000D+00 -.200234353542D-07  .690000000000D+02
     .367206000000D+06  .400000000000D+01
